DMSP 5D-3 F16 (USA 172) 
1 28054U 03048A   26158.32347068  .00000024  00000+0  36294-4 0  9992
2 28054  98.9893 182.0863 0007259 166.1666 210.4088 14.14482254168092
METEOSAT-9 (MSG-2)      
1 28912U 05049B   26157.85553681  .00000136  00000+0  00000+0 0  9990
2 28912   9.3374  54.2678 0001794 349.1342 205.5679  1.00268262  6893
DMSP 5D-3 F17 (USA 191) 
1 29522U 06050A   26158.27010722  .00000059  00000+0  52965-4 0  9998
2 29522  98.7378 165.0431 0011326  84.7508 275.4958 14.14991655 11028
FENGYUN 3A              
1 32958U 08026A   26158.10913726  .00000074  00000+0  55391-4 0  9991
2 32958  98.6882  99.1311 0009156 150.4712 209.6983 14.19569001933979
GOES 14                 
1 35491U 09033A   26158.22559752 -.00000236  00000+0  00000+0 0  9996
2 35491   1.6635  83.1645 0002018   3.1371  38.0761  1.00114532  6499
DMSP 5D-3 F18 (USA 210) 
1 35951U 09057A   26158.24082067  .00000280  00000+0  16826-3 0  9990
2 35951  98.9033 139.0318 0009883 281.2296  78.7766 14.14891360858188
EWS-G2 (GOES 15)        
1 36411U 10008A   26157.98377891  .00000033  00000+0  00000+0 0  9991
2 36411   1.2489  83.0325 0005468  36.8697 193.2358  1.00275979 59537
COMS 1                  
1 36744U 10032A   26154.99142485 -.00000334  00000+0  00000+0 0  9999
2 36744   4.7750  75.5286 0001016   4.5847 297.3769  1.00270643 50953
FENGYUN 3B              
1 37214U 10059A   26158.27517931  .00000248  00000+0  15189-3 0  9999
2 37214  98.9619 204.2474 0021420 212.7301 276.8989 14.14840094806029
SUOMI NPP               
1 37849U 11061A   26158.12005726  .00000074  00000+0  56257-4 0  9994
2 37849  98.7951  99.0651 0002070  28.6046 331.5243 14.19515290757015
METEOSAT-10 (MSG-3)     
1 38552U 12035B   26158.06040620  .00000009  00000+0  00000+0 0  9991
2 38552   4.6469  61.0634 0001690 336.1678 240.1814  1.00275746 50753
METOP-B                 
1 38771U 12049A   26157.98287386  .00000104  00000+0  67246-4 0  9997
2 38771  98.6508 209.6852 0002816  43.2047 316.9351 14.21429964711811
INSAT-3D                
1 39216U 13038B   26157.51567339 -.00000326  00000+0  00000+0 0  9996
2 39216   1.8977  82.6765 0000806 350.3630 137.0203  1.00268069 46977
FENGYUN 3C              
1 39260U 13052A   26158.22019013  .00000102  00000+0  72814-4 0  9999
2 39260  98.4975 132.5530 0015679  54.7851 305.4789 14.15752879657150
METEOR-M 2              
1 40069U 14037A   26158.22059920 -.00000145  00000+0 -47014-4 0  9996
2 40069  98.5115 134.3126 0007040  68.4578 291.7350 14.21457555617908
HIMAWARI-8              
1 40267U 14060A   26158.23082934 -.00000261  00000+0  00000+0 0  9991
2 40267   0.0201  52.7855 0000872  45.4489  21.1778  1.00271236 42663
FENGYUN 2G              
1 40367U 14090A   26157.79492472 -.00000289  00000+0  00000+0 0  9997
2 40367   5.6125  72.9393 0003330 154.5057  53.5102  1.00277925 41891
METEOSAT-11 (MSG-4)     
1 40732U 15034A   26158.20482997  .00000078  00000+0  00000+0 0  9995
2 40732   3.1774  71.1654 0001678   5.2854 262.3074  1.00277204  7116
ELEKTRO-L 2             
1 41105U 15074A   26158.05735411 -.00000104  00000+0  00000+0 0  9990
2 41105   6.6683  70.6461 0001291 283.5448 267.4428  1.00272194 38407
SENTINEL-3A             
1 41335U 16011A   26157.97760480  .00000115  00000+0  65534-4 0  9990
2 41335  98.6250 225.5074 0001345 104.5544 255.5786 14.26737178536603
INSAT-3DR               
1 41752U 16054A   26158.07512824 -.00000063  00000+0  00000+0 0  9994
2 41752   0.0796  87.7402 0010340 186.8952  81.8921  1.00270761 35717
HIMAWARI-9              
1 41836U 16064A   26158.23091601 -.00000260  00000+0  00000+0 0  9990
2 41836   0.0381 173.7848 0000897 297.9883   7.7637  1.00273426 35119
GOES 16                 
1 41866U 16071A   26158.19003021 -.00000077  00000+0  00000+0 0  9991
2 41866   0.3142  85.6275 0000519 316.9738 176.7445  1.00270876 35005
FENGYUN 4A              
1 41882U 16077A   26158.21225356 -.00000342  00000+0  00000+0 0  9990
2 41882   2.2969  80.3901 0008210 151.5662 223.8374  1.00274846 34830
CYGFM05                 
1 41884U 16078A   26158.17366038  .00025237  00000+0  34747-3 0  9999
2 41884  34.9577 326.8764 0007052  47.5364 312.5956 15.56221382527191
CYGFM04                 
1 41885U 16078B   26157.79132970  .00033565  00000+0  38615-3 0  9994
2 41885  34.9328 297.6136 0006004  90.3195 269.8218 15.60924335527376
CYGFM02                 
1 41886U 16078C   26157.74778463  .00042435  00000+0  43527-3 0  9997
2 41886  34.9411 292.7401 0006958  91.2851 268.8673 15.63814591527535
CYGFM01                 
1 41887U 16078D   26158.16669591  .00025604  00000+0  34390-3 0  9993
2 41887  34.9408 328.0607 0006970  40.7680 319.3565 15.56882001527148
CYGFM08                 
1 41888U 16078E   26157.82309373  .00031293  00000+0  38067-3 0  9991
2 41888  34.9438 310.1862 0007922  71.9711 288.1877 15.59466369527356
CYGFM07                 
1 41890U 16078G   26158.10295280  .00030707  00000+0  37206-3 0  9990
2 41890  34.9451 296.6759 0006359  92.9078 267.2375 15.59586778527425
CYGFM03                 
1 41891U 16078H   26158.07390436  .00030150  00000+0  36550-3 0  9999
2 41891  34.9406 298.8090 0005953  78.4832 281.6562 15.59579007527395
